NORAD_CAT_ID,OBJECT_NAME,OBJECT_TYPE,EPOCH,MEAN_MOTION,ECCENTRICITY,INCLINATION,RA_OF_ASC_NODE,ARG_OF_PERICENTER,MEAN_ANOMALY,BSTAR,MEAN_MOTION_DOT,MEAN_MOTION_DDOT,TLE_LINE0,TLE_LINE1,TLE_LINE2,SEMIMAJOR_AXIS,PERIOD,APOGEE,PERIGEE,DECAYED
55434.0,STARLINK-5621,PAYLOAD,2023-02-07 16:00:01,15.70543218,0.0003298,70.007,70.0955,275.5781,291.1817,-0.0074516,-0.00833386,0.0,0 STARLINK-5621,1 55434U 23014AV  23038.66668981 -.00833386  00000-0 -74516-2 0  9995,2 55434  70.0070  70.0955 0003298 275.5781 291.1817 15.70543218  1309,6735.48,91.688,359.567,355.124,0.0
55434.0,STARLINK-5621,PAYLOAD,2023-02-07 22:00:00,15.69917883,0.000327,70.006,69.3924,266.537,273.0047,0.00027133,0.0003253,0.0,0 STARLINK-5621,1 55434U 23014AV  23038.91667824  .00032530  00000-0  27133-3 0  9992,2 55434  70.0060  69.3924 0003270 266.5370 273.0047 15.69917883  1304,6737.269,91.725,361.337,356.931,0.0
55434.0,STARLINK-5621,PAYLOAD,2023-02-08 14:00:01,15.69894814,0.000321,70.0025,67.5182,281.4603,64.7376,0.00060602,0.00073204,0.0,0 STARLINK-5621,1 55434U 23014AV  23039.58334491  .00073204  00000-0  60602-3 0  9998,2 55434  70.0025  67.5182 0003210 281.4603  64.7376 15.69894814  1443,6737.335,91.726,361.363,357.037,0.0
55434.0,STARLINK-5621,PAYLOAD,2023-02-08 22:00:00,15.69926176,0.000311,70.0014,66.5814,276.7218,152.8109,0.00032543,0.00039102,0.0,0 STARLINK-5621,1 55434U 23014AV  23039.91667824  .00039102  00000-0  32543-3 0  9996,2 55434  70.0014  66.5814 0003110 276.7218 152.8109 15.69926176  1305,6737.245,91.724,361.205,357.015,0.0
55434.0,STARLINK-5621,PAYLOAD,2023-02-09 06:00:00,15.69961062,0.0003202,70.0005,65.6444,283.6572,229.2342,-0.00070556,-0.0008433,0.0,0 STARLINK-5621,1 55434U 23014AV  23040.25001157 -.00084330  00000-0 -70556-3 0  9997,2 55434  70.0005  65.6444 0003202 283.6572 229.2342 15.69961062  1543,6737.145,91.722,361.168,356.853,0.0
55434.0,STARLINK-5621,PAYLOAD,2023-02-09 12:00:00,15.6989276,0.0003222,70.0,64.9414,287.9669,197.444,0.00039563,0.00047566,0.0,0 STARLINK-5621,1 55434U 23014AV  23040.50001157  .00047566  00000-0  39563-3 0  9996,2 55434  70.0000  64.9414 0003222 287.9669 197.4440 15.69892760  1300,6737.341,91.726,361.377,357.035,0.0
55434.0,STARLINK-5621,PAYLOAD,2023-02-09 20:00:01,15.6986469,0.000311,69.9999,64.0039,279.7265,289.0263,0.00075754,0.00091646,0.0,0 STARLINK-5621,1 55434U 23014AV  23040.83334491  .00091646  00000-0  75754-3 0  9992,2 55434  69.9999  64.0039 0003110 279.7265 289.0263 15.69864690  1644,6737.421,91.728,361.381,357.191,0.0
55434.0,STARLINK-5621,PAYLOAD,2023-02-09 22:00:00,15.69846896,0.0003093,69.9998,63.7697,276.9243,42.6528,0.0012269,0.00149485,0.0,0 STARLINK-5621,1 55434U 23014AV  23040.91667824  .00149485  00000-0  12269-2 0  9996,2 55434  69.9998  63.7697 0003093 276.9243  42.6528 15.69846896  1302,6737.472,91.729,361.421,357.253,0.0
55434.0,STARLINK-5621,PAYLOAD,2023-02-10 02:00:01,15.69945888,0.0003054,70.0001,63.3012,275.7985,265.404,-0.00012104,-0.00014753,0.0,0 STARLINK-5621,1 55434U 23014AV  23041.08334491 -.00014753  00000-0 -12104-3 0  9996,2 55434  70.0001  63.3012 0003054 275.7985 265.4040 15.69945888  1679,6737.189,91.723,361.111,356.996,0.0
55434.0,STARLINK-5621,PAYLOAD,2023-02-10 04:00:00,15.69970666,0.0003131,70.0002,63.0667,277.1342,14.9028,-0.00046214,-0.00055519,0.0,0 STARLINK-5621,1 55434U 23014AV  23041.16667824 -.00055519  00000-0 -46214-3 0  9998,2 55434  70.0002  63.0667 0003131 277.1342  14.9028 15.69970666  1307,6737.118,91.721,361.092,356.874,0.0
55434.0,STARLINK-5621,PAYLOAD,2023-02-10 22:00:00,15.69834702,0.0002999,70.0001,60.9581,267.8623,301.7201,0.0013317,0.0016244,0.0,0 STARLINK-5621,1 55434U 23014AV  23041.91667824  .00162440  00000-0  13317-2 0  9998,2 55434  70.0001  60.9581 0002999 267.8623 301.7201 15.69834702  1306,6737.507,91.729,361.393,357.351,0.0
55434.0,STARLINK-5621,PAYLOAD,2023-02-11 00:00:00,15.69882292,0.0002982,70.0003,60.724,266.6006,53.7892,0.00083903,0.00101723,0.0,0 STARLINK-5621,1 55434U 23014AV  23042.00001157  .00101723  00000-0  83903-3 0  9996,2 55434  70.0003  60.7240 0002982 266.6006  53.7892 15.69882292  1826,6737.371,91.727,361.245,357.227,0.0
55434.0,STARLINK-5621,PAYLOAD,2023-02-11 18:31:09,15.69955405,0.0003126,70.0011,58.5543,267.6359,92.4479,0.00072251,0.00087686,0.0,0 STARLINK-5621,1 55434U 23014AV  23042.77163459  .00087686  00000-0  72251-3 0  9999,2 55434  70.0011  58.5543 0003126 267.6359  92.4479 15.69955405  1940,6737.162,91.722,361.133,356.921,0.0
55434.0,STARLINK-5621,PAYLOAD,2023-02-12 22:00:00,15.69876194,0.0003094,70.0001,55.3351,259.7353,89.8605,0.00086978,0.00105481,0.0,0 STARLINK-5621,1 55434U 23014AV  23043.91667824  .00105481  00000-0  86978-3 0  9996,2 55434  70.0001  55.3351 0003094 259.7353  89.8605 15.69876194  2120,6737.388,91.727,361.338,357.169,0.0
55434.0,STARLINK-5621,PAYLOAD,2023-02-13 06:00:00,15.69946054,0.0003138,70.0002,54.3982,265.9896,166.9243,-0.00038219,-0.00045957,0.0,0 STARLINK-5621,1 55434U 23014AV  23044.25001157 -.00045957  00000-0 -38219-3 0  9993,2 55434  70.0002  54.3982 0003138 265.9896 166.9243 15.69946054  2173,6737.188,91.723,361.167,356.939,0.0
55434.0,STARLINK-5621,PAYLOAD,2023-02-13 14:00:01,15.6993203,0.000311,69.9995,53.4609,270.2246,246.0265,-0.00033798,-0.00040667,0.0,0 STARLINK-5621,1 55434U 23014AV  23044.58334491 -.00040667  00000-0 -33798-3 0  9999,2 55434  69.9995  53.4609 0003110 270.2246 246.0265 15.69932030  1302,6737.228,91.724,361.189,356.998,0.0
55434.0,STARLINK-5621,PAYLOAD,2023-02-13 22:00:00,15.69879427,0.0003176,69.9996,52.5237,262.2623,337.32,0.0010095,0.00122731,0.0,0 STARLINK-5621,1 55434U 23014AV  23044.91667824  .00122731  00000-0  10095-2 0  9990,2 55434  69.9996  52.5237 0003176 262.2623 337.3200 15.69879427  2283,6737.379,91.727,361.384,357.104,0.0
55434.0,STARLINK-5621,PAYLOAD,2023-02-14 00:00:00,15.69938672,0.0003153,69.9998,52.2894,262.9077,87.4891,0.00018014,0.00021515,0.0,0 STARLINK-5621,1 55434U 23014AV  23045.00001157  .00021515  00000-0  18014-3 0  9990,2 55434  69.9998  52.2894 0003153 262.9077  87.4891 15.69938672  2294,6737.209,91.723,361.199,356.95,0.0
55434.0,STARLINK-5621,PAYLOAD,2023-02-15 03:34:06,15.69641496,0.0003766,69.9999,49.0596,259.5502,100.5269,-0.0012655,-0.00148007,0.0,0 STARLINK-5621,1 55434U 23014AV  23046.14868132 -.00148007  00000-0 -12655-2 0  9992,2 55434  69.9999  49.0596 0003766 259.5502 100.5269 15.69641496  2474,6738.06,91.741,362.462,357.387,0.0
55434.0,STARLINK-5621,PAYLOAD,2023-02-15 08:09:30,15.69347527,0.0003784,69.9996,48.5229,266.2061,93.8702,-0.002376,-0.00270421,0.0,0 STARLINK-5621,1 55434U 23014AV  23046.33993243 -.00270421  00000-0 -23760-2 0  9990,2 55434  69.9996  48.5229 0003784 266.2061  93.8702 15.69347527  2501,6738.901,91.758,363.316,358.216,0.0
55434.0,STARLINK-5621,PAYLOAD,2023-02-15 09:41:20,15.69175995,0.0003151,69.9996,48.3434,269.3712,90.7122,-0.003033,-0.00339849,0.0,0 STARLINK-5621,1 55434U 23014AV  23046.40370573 -.00339849  00000-0 -30330-2 0  9994,2 55434  69.9996  48.3434 0003151 269.3712  90.7122 15.69175995  2513,6739.392,91.768,363.381,359.134,0.0
55434.0,STARLINK-5621,PAYLOAD,2023-02-15 12:44:58,15.69005588,0.0003922,69.9996,47.9865,265.7951,94.2796,-0.0032907,-0.0036513,0.0,0 STARLINK-5621,1 55434U 23014AV  23046.53122924 -.00365130  00000-0 -32907-2 0  9997,2 55434  69.9996  47.9865 0003922 265.7951  94.2796 15.69005588  3479,6739.88,91.778,364.389,359.102,0.0
55434.0,STARLINK-5621,PAYLOAD,2023-02-15 18:51:33,15.71117686,0.0016657,69.9995,47.2693,211.2608,148.7599,0.0083661,0.01175375,0.0,0 STARLINK-5621,1 55434U 23014AV  23046.78580141  .01175375  00000-0  83661-2 0  9995,2 55434  69.9995  47.2693 0016657 211.2608 148.7599 15.71117686  2576,6733.838,91.654,366.92,344.487,0.0
55434.0,STARLINK-5621,PAYLOAD,2023-02-17 22:00:00,15.62271426,0.0003462,69.9991,41.324,270.8998,207.6479,-0.014996,-0.01195385,0.0,0 STARLINK-5621,1 55434U 23014AV  23048.91667824 -.01195385  00000-0 -14996-1 0  9995,2 55434  69.9991  41.3240 0003462 270.8998 207.6479 15.62271426  2900,6759.235,92.173,383.44,378.759,0.0
55434.0,STARLINK-5621,PAYLOAD,2023-02-18 14:00:01,15.60580822,0.0003454,69.9989,39.4729,272.0075,352.7562,-0.016972,-0.01259482,0.0,0 STARLINK-5621,1 55434U 23014AV  23049.58334491 -.01259482  00000-0 -16972-1 0  9995,2 55434  69.9989  39.4729 0003454 272.0075 352.7562 15.60580822  3017,6764.115,92.273,388.317,383.644,0.0
55434.0,STARLINK-5621,PAYLOAD,2023-02-19 06:00:00,15.58796034,0.0003448,69.9995,37.627,272.543,134.3377,-0.016396,-0.01148021,0.0,0 STARLINK-5621,1 55434U 23014AV  23050.25001157 -.01148021  00000-0 -16396-1 0  9997,2 55434  69.9995  37.6270 0003448 272.5430 134.3377 15.58796034  3118,6769.277,92.379,393.476,388.808,0.0
55434.0,STARLINK-5621,PAYLOAD,2023-02-19 14:00:01,15.57994412,0.0003378,69.9991,36.7054,272.9977,203.3704,-0.01848,-0.01244116,0.0,0 STARLINK-5621,1 55434U 23014AV  23050.58334491 -.01244116  00000-0 -18480-1 0  9991,2 55434  69.9991  36.7054 0003378 272.9977 203.3704 15.57994412  1305,6771.599,92.427,395.752,391.177,0.0
55434.0,STARLINK-5621,PAYLOAD,2023-02-19 22:00:00,15.57130317,0.0003255,69.9994,35.7854,263.8029,281.0324,-0.01857,-0.01213517,0.0,0 STARLINK-5621,1 55434U 23014AV  23050.91667824 -.01213517  00000-0 -18570-1 0  9998,2 55434  69.9994  35.7854 0003255 263.8029 281.0324 15.57130317  3226,6774.104,92.478,398.174,393.764,0.0
55434.0,STARLINK-5621,PAYLOAD,2023-02-20 14:00:01,15.55409477,0.000333,69.9995,33.9484,268.0514,50.6504,-0.020113,-0.01230723,0.0,0 STARLINK-5621,1 55434U 23014AV  23051.58334491 -.01230723  00000-0 -20113-1 0  9997,2 55434  69.9995  33.9484 0003330 268.0514  50.6504 15.55409477  1307,6779.1,92.58,403.222,398.707,0.0
55434.0,STARLINK-5621,PAYLOAD,2023-02-20 22:00:01,15.54551259,0.0003472,69.9998,33.0321,267.0999,117.0433,-0.020405,-0.01211859,0.0,0 STARLINK-5621,1 55434U 23014AV  23051.91668981 -.01211859  00000-0 -20405-1 0  9991,2 55434  69.9998  33.0321 0003472 267.0999 117.0433 15.54551259  3377,6781.594,92.631,405.814,401.105,0.0
